{
    "links": {
        "self": "http://www.neowsapp.com/rest/v1/neo/3752456?api_key=iIulBulltgU6a56xZRHN4H3l9WmuAYTsLGpBGhQ2"
    },
    "id": "3752456",
    "neo_reference_id": "3752456",
    "name": "(2016 HO6)",
    "designation": "2016 HO6",
    "nasa_jpl_url": "http://ssd.jpl.nasa.gov/sbdb.cgi?sstr=3752456",
    "absolute_magnitude_h": 25.4,
    "estimated_diameter": {
        "kilometers": {
            "estimated_diameter_min": 0.022108281,
            "estimated_diameter_max": 0.0494356193
        },
        "meters": {
            "estimated_diameter_min": 22.1082810359,
            "estimated_diameter_max": 49.435619262
        },
        "miles": {
            "estimated_diameter_min": 0.0137374447,
            "estimated_diameter_max": 0.0307178602
        },
        "feet": {
            "estimated_diameter_min": 72.5337327539,
            "estimated_diameter_max": 162.1903570994
        }
    },
    "is_potentially_hazardous_asteroid": false,
    "close_approach_data": [
        {
            "close_approach_date": "2016-04-30",
            "close_approach_date_full": "2016-Apr-30 13:50",
            "epoch_date_close_approach": 1462024200000,
            "relative_velocity": {
                "kilometers_per_second": "6.3018092309",
                "kilometers_per_hour": "22686.5132312414",
                "miles_per_hour": "14096.5170686011"
            },
            "miss_distance": {
                "astronomical": "0.0525703685",
                "lunar": "20.4498733465",
                "kilometers": "7864415.152715095",
                "miles": "4886720.975634511"
            },
            "orbiting_body": "Earth"
        },
        {
            "close_approach_date": "2019-03-06",
            "close_approach_date_full": "2019-Mar-06 03:35",
            "epoch_date_close_approach": 1551843300000,
            "relative_velocity": {
                "kilometers_per_second": "19.5802070351",
                "kilometers_per_hour": "70488.7453263222",
                "miles_per_hour": "43798.9651167917"
            },
            "miss_distance": {
                "astronomical": "0.484847192",
                "lunar": "188.605557688",
                "kilometers": "72532107.19868104",
                "miles": "45069361.519196752"
            },
            "orbiting_body": "Earth"
        }
    ],
    "orbital_data": {
        "orbit_id": "14",
        "orbit_determination_date": "2017-04-06 08:26:20",
        "first_observation_date": "2016-04-29",
        "last_observation_date": "2016-05-12",
        "data_arc_in_days": 13,
        "observations_used": 84,
        "orbit_uncertainty": "7",
        "minimum_orbit_intersection": ".0521941",
        "jupiter_tisserand_invariant": "3.643",
        "epoch_osculation": "2459000.5",
        "eccentricity": ".4832852316561266",
        "semi_major_axis": "2.04094936822084",
        "inclination": "4.450568547188335",
        "ascending_node_longitude": "50.50127907429484",
        "orbital_period": "1064.993048947041",
        "perihelion_distance": "1.054588680001806",
        "perihelion_argument": "161.7078006431965",
        "aphelion_distance": "3.027310056439874",
        "perihelion_time": "2458567.585784312738",
        "mean_anomaly": "146.3381547903079",
        "mean_motion": ".3380303752742161",
        "equinox": "J2000",
        "orbit_class": {
            "orbit_class_type": "AMO",
            "orbit_class_description": "Near-Earth asteroid orbits similar to that of 1221 Amor",
            "orbit_class_range": "1.017 AU < q (perihelion) < 1.3 AU"
        }
    },
    "is_sentry_object": false
}